start=new Date('2022-07-13T00:00:00.000Z').valueOf();
sats=[{"INCLINATION":"53.0511","CENTER_NAME":"EARTH","GP_ID":"207969597","DECAY_DATE":null,"REV_AT_EPOCH":"9614","APOAPSIS":"441.855","MEAN_ELEMENT_THEORY":"SGP4","FILE":"3512184","OBJECT_NAME":"STARLINK-1898","ELEMENT_SET_NO":"999","MEAN_MOTION":"15.42203510","PERIAPSIS":"437.364","EPOCH":"2022-07-12T13:03:52.929504","OBJECT_TYPE":"PAYLOAD","TLE_LINE1":"1 46745U 20074G   22193.54436261  .00021690  00000-0  50566-3 0  9990","EPHEMERIS_TYPE":"0","LAUNCH_DATE":"2020-10-24","SEMIMAJOR_AXIS":"6817.744","CLASSIFICATION_TYPE":"U","TLE_LINE2":"2 46745  53.0511 139.2066 0003294  37.6541 322.4694 15.42203510 96147","MEAN_MOTION_DOT":"0.00021690","ECCENTRICITY":"0.00032940","RA_OF_ASC_NODE":"139.2066","MEAN_MOTION_DDOT":"0.0000000000000","REF_FRAME":"TEME","COUNTRY_CODE":"US","MEAN_ANOMALY":"322.4694","PERIOD":"93.373","SITE":"AFETR","ARG_OF_PERICENTER":"37.6541","TIME_SYSTEM":"UTC","BSTAR":"0.00050566000000","RCS_SIZE":"LARGE","NORAD_CAT_ID":"46745","OBJECT_ID":"2020-074G"},{"MEAN_ELEMENT_THEORY":"SGP4","FILE":"3512432","OBJECT_NAME":"STARLINK-1905","PERIAPSIS":"545.971","EPOCH":"2022-07-12T17:35:34.096128","TLE_LINE1":"1 46746U 20074H   22193.73303352 -.00000815  00000-0 -35824-4 0  9995","EPHEMERIS_TYPE":"0","OBJECT_TYPE":"PAYLOAD","ELEMENT_SET_NO":"999","MEAN_MOTION":"15.06392881","INCLINATION":"53.0520","CENTER_NAME":"EARTH","DECAY_DATE":null,"REV_AT_EPOCH":"9531","APOAPSIS":"548.499","GP_ID":"207997804","RCS_SIZE":"LARGE","TIME_SYSTEM":"UTC","BSTAR":"-0.00003582400000","NORAD_CAT_ID":"46746","OBJECT_ID":"2020-074H","MEAN_MOTION_DOT":"-0.00000815","ECCENTRICITY":"0.00018250","RA_OF_ASC_NODE":"198.9689","LAUNCH_DATE":"2020-10-24","SEMIMAJOR_AXIS":"6925.370","CLASSIFICATION_TYPE":"U","TLE_LINE2":"2 46746  53.0520 198.9689 0001825  49.7196 310.3952 15.06392881 95310","COUNTRY_CODE":"US","MEAN_ANOMALY":"310.3952","PERIOD":"95.593","ARG_OF_PERICENTER":"49.7196","SITE":"AFETR","MEAN_MOTION_DDOT":"0.0000000000000","REF_FRAME":"TEME"},{"OBJECT_ID":"2020-074J","NORAD_CAT_ID":"46747","RCS_SIZE":"LARGE","BSTAR":"0.00006912200000","TIME_SYSTEM":"UTC","SITE":"AFETR","ARG_OF_PERICENTER":"66.0550","PERIOD":"95.592","MEAN_ANOMALY":"294.0599","COUNTRY_CODE":"US","MEAN_MOTION_DDOT":"0.0000000000000","REF_FRAME":"TEME","RA_OF_ASC_NODE":"199.0544","ECCENTRICITY":"0.00015320","MEAN_MOTION_DOT":"0.00000748","TLE_LINE2":"2 46747  53.0530 199.0544 0001532  66.0550 294.0599 15.06402919 95314","SEMIMAJOR_AXIS":"6925.340","CLASSIFICATION_TYPE":"U","LAUNCH_DATE":"2020-10-24","TLE_LINE1":"1 46747U 20074J   22193.71459744  .00000748  00000-0  69122-4 0  9992","EPHEMERIS_TYPE":"0","OBJECT_TYPE":"PAYLOAD","EPOCH":"2022-07-12T17:09:01.218816","PERIAPSIS":"546.144","MEAN_MOTION":"15.06402919","ELEMENT_SET_NO":"999","OBJECT_NAME":"STARLINK-1908","FILE":"3512432","MEAN_ELEMENT_THEORY":"SGP4","APOAPSIS":"548.266","REV_AT_EPOCH":"9531","DECAY_DATE":null,"GP_ID":"207998555","INCLINATION":"53.0530","CENTER_NAME":"EARTH"},{"INCLINATION":"53.0529","CENTER_NAME":"EARTH","GP_ID":"207998036","REV_AT_EPOCH":"9531","DECAY_DATE":null,"APOAPSIS":"548.251","OBJECT_NAME":"STARLINK-1910","FILE":"3512432","MEAN_ELEMENT_THEORY":"SGP4","ELEMENT_SET_NO":"999","MEAN_MOTION":"15.06392691","PERIAPSIS":"546.221","OBJECT_TYPE":"PAYLOAD","TLE_LINE1":"1 46748U 20074K   22193.72198193  .00001698  00000-0  13291-3 0  9992","EPHEMERIS_TYPE":"0","EPOCH":"2022-07-12T17:19:39.238752","LAUNCH_DATE":"2020-10-24","TLE_LINE2":"2 46748  53.0529 199.0195 0001465  73.0669 287.0480 15.06392691 95315","CLASSIFICATION_TYPE":"U","SEMIMAJOR_AXIS":"6925.371","ECCENTRICITY":"0.00014650","MEAN_MOTION_DOT":"0.00001698","RA_OF_ASC_NODE":"199.0195","MEAN_MOTION_DDOT":"0.0000000000000","REF_FRAME":"TEME","MEAN_ANOMALY":"287.0480","COUNTRY_CODE":"US","ARG_OF_PERICENTER":"73.0669","SITE":"AFETR","PERIOD":"95.593","TIME_SYSTEM":"UTC","BSTAR":"0.00013291000000","RCS_SIZE":"LARGE","OBJECT_ID":"2020-074K","NORAD_CAT_ID":"46748"},{"LAUNCH_DATE":"2020-10-24","TLE_LINE2":"2 46749  53.0532 197.2022 0001645  62.0958 298.0197 15.06401953 95395","SEMIMAJOR_AXIS":"6925.343","CLASSIFICATION_TYPE":"U","ECCENTRICITY":"0.00016450","MEAN_MOTION_DOT":"0.00001566","RA_OF_ASC_NODE":"197.2022","MEAN_MOTION_DDOT":"0.0000000000000","REF_FRAME":"TEME","MEAN_ANOMALY":"298.0197","COUNTRY_CODE":"US","ARG_OF_PERICENTER":"62.0958","SITE":"AFETR","PERIOD":"95.592","TIME_SYSTEM":"UTC","BSTAR":"0.00012400000000","RCS_SIZE":"LARGE","OBJECT_ID":"2020-074L","NORAD_CAT_ID":"46749","INCLINATION":"53.0532","CENTER_NAME":"EARTH","GP_ID":"208004867","REV_AT_EPOCH":"9539","DECAY_DATE":null,"APOAPSIS":"548.347","FILE":"3512531","OBJECT_NAME":"STARLINK-1911","MEAN_ELEMENT_THEORY":"SGP4","ELEMENT_SET_NO":"999","MEAN_MOTION":"15.06401953","PERIAPSIS":"546.068","TLE_LINE1":"1 46749U 20074L   22194.12742061  .00001566  00000-0  12400-3 0  9992","OBJECT_TYPE":"PAYLOAD","EPHEMERIS_TYPE":"0","EPOCH":"2022-07-13T03:03:29.140704"},{"OBJECT_NAME":"STARLINK-1920","FILE":"3512432","MEAN_ELEMENT_THEORY":"SGP4","TLE_LINE1":"1 46751U 20074N   22193.72566669  .00001617  00000-0  12745-3 0  9997","OBJECT_TYPE":"PAYLOAD","EPHEMERIS_TYPE":"0","EPOCH":"2022-07-12T17:24:57.602016","PERIAPSIS":"546.400","MEAN_MOTION":"15.06387803","ELEMENT_SET_NO":"999","CENTER_NAME":"EARTH","INCLINATION":"53.0543","APOAPSIS":"548.102","REV_AT_EPOCH":"9531","DECAY_DATE":null,"GP_ID":"207998303","RCS_SIZE":"LARGE","BSTAR":"0.00012745000000","TIME_SYSTEM":"UTC","OBJECT_ID":"2020-074N","NORAD_CAT_ID":"46751","RA_OF_ASC_NODE":"199.0017","ECCENTRICITY":"0.00012290","MEAN_MOTION_DOT":"0.00001617","TLE_LINE2":"2 46751  53.0543 199.0017 0001229  69.9134 290.1987 15.06387803 95313","CLASSIFICATION_TYPE":"U","SEMIMAJOR_AXIS":"6925.386","LAUNCH_DATE":"2020-10-24","ARG_OF_PERICENTER":"69.9134","SITE":"AFETR","PERIOD":"95.593","MEAN_ANOMALY":"290.1987","COUNTRY_CODE":"US","MEAN_MOTION_DDOT":"0.0000000000000","REF_FRAME":"TEME"},{"NORAD_CAT_ID":"46752","OBJECT_ID":"2020-074P","RCS_SIZE":"LARGE","BSTAR":"0.00012425000000","TIME_SYSTEM":"UTC","PERIOD":"95.592","ARG_OF_PERICENTER":"58.6044","SITE":"AFETR","COUNTRY_CODE":"US","MEAN_ANOMALY":"301.5139","MEAN_MOTION_DDOT":"0.0000000000000","REF_FRAME":"TEME","RA_OF_ASC_NODE":"198.9324","MEAN_MOTION_DOT":"0.00001570","ECCENTRICITY":"0.00019820","CLASSIFICATION_TYPE":"U","SEMIMAJOR_AXIS":"6925.341","TLE_LINE2":"2 46752  53.0532 198.9324 0001982  58.6044 301.5139 15.06402380 95316","LAUNCH_DATE":"2020-10-24","EPOCH":"2022-07-12T17:40:52.285728","TLE_LINE1":"1 46752U 20074P   22193.73671627  .00001570  00000-0  12425-3 0  9993","OBJECT_TYPE":"PAYLOAD","EPHEMERIS_TYPE":"0","PERIAPSIS":"545.834","MEAN_MOTION":"15.06402380","ELEMENT_SET_NO":"999","MEAN_ELEMENT_THEORY":"SGP4","OBJECT_NAME":"STARLINK-1921","FILE":"3512432","APOAPSIS":"548.579","DECAY_DATE":null,"REV_AT_EPOCH":"9531","GP_ID":"207999055","INCLINATION":"53.0532","CENTER_NAME":"EARTH"},{"OBJECT_ID":"2020-074Q","NORAD_CAT_ID":"46753","BSTAR":"0.00013631000000","TIME_SYSTEM":"UTC","RCS_SIZE":"LARGE","MEAN_MOTION_DDOT":"0.0000000000000","REF_FRAME":"TEME","ARG_OF_PERICENTER":"62.5092","SITE":"AFETR","PERIOD":"95.593","MEAN_ANOMALY":"297.6054","COUNTRY_CODE":"US","TLE_LINE2":"2 46753  53.0544 197.3052 0001545  62.5092 297.6054 15.06392912 95391","SEMIMAJOR_AXIS":"6925.370","CLASSIFICATION_TYPE":"U","LAUNCH_DATE":"2020-10-24","RA_OF_ASC_NODE":"197.3052","ECCENTRICITY":"0.00015450","MEAN_MOTION_DOT":"0.00001749","MEAN_MOTION":"15.06392912","ELEMENT_SET_NO":"999","TLE_LINE1":"1 46753U 20074Q   22194.10164575  .00001749  00000-0  13631-3 0  9993","EPHEMERIS_TYPE":"0","OBJECT_TYPE":"PAYLOAD","EPOCH":"2022-07-13T02:26:22.192800","PERIAPSIS":"546.165","FILE":"3512557","OBJECT_NAME":"STARLINK-1922","MEAN_ELEMENT_THEORY":"SGP4","GP_ID":"208005193","APOAPSIS":"548.305","REV_AT_EPOCH":"9539","DECAY_DATE":null,"INCLINATION":"53.0544","CENTER_NAME":"EARTH"},{"INCLINATION":"53.0540","CENTER_NAME":"EARTH","GP_ID":"207997555","APOAPSIS":"548.317","DECAY_DATE":null,"REV_AT_EPOCH":"9531","MEAN_ELEMENT_THEORY":"SGP4","FILE":"3512432","OBJECT_NAME":"STARLINK-1923","MEAN_MOTION":"15.06385738","ELEMENT_SET_NO":"999","EPOCH":"2022-07-12T17:03:44.193888","OBJECT_TYPE":"PAYLOAD","TLE_LINE1":"1 46754U 20074R   22193.71092817  .00001399  00000-0  11282-3 0  9990","EPHEMERIS_TYPE":"0","PERIAPSIS":"546.198","SEMIMAJOR_AXIS":"6925.392","CLASSIFICATION_TYPE":"U","TLE_LINE2":"2 46754  53.0540 199.0525 0001530  71.2135 288.9020 15.06385738 95317","LAUNCH_DATE":"2020-10-24","RA_OF_ASC_NODE":"199.0525","MEAN_MOTION_DOT":"0.00001399","ECCENTRICITY":"0.00015300","MEAN_MOTION_DDOT":"0.0000000000000","REF_FRAME":"TEME","PERIOD":"95.593","SITE":"AFETR","ARG_OF_PERICENTER":"71.2135","COUNTRY_CODE":"US","MEAN_ANOMALY":"288.9020","BSTAR":"0.00011282000000","TIME_SYSTEM":"UTC","RCS_SIZE":"LARGE","NORAD_CAT_ID":"46754","OBJECT_ID":"2020-074R"},{"EPOCH":"2022-07-13T02:44:14.803008","EPHEMERIS_TYPE":"0","TLE_LINE1":"1 46755U 20074S   22194.11406022  .00001963  00000-0  15066-3 0  9994","OBJECT_TYPE":"PAYLOAD","PERIAPSIS":"545.973","MEAN_MOTION":"15.06404897","ELEMENT_SET_NO":"999","MEAN_ELEMENT_THEORY":"SGP4","OBJECT_NAME":"STARLINK-1924","FILE":"3512558","APOAPSIS":"548.424","DECAY_DATE":null,"REV_AT_EPOCH":"9531","GP_ID":"208005704","INCLINATION":"53.0538","CENTER_NAME":"EARTH","NORAD_CAT_ID":"46755","OBJECT_ID":"2020-074S","RCS_SIZE":"LARGE","BSTAR":"0.00015066000000","TIME_SYSTEM":"UTC","PERIOD":"95.592","SITE":"AFETR","ARG_OF_PERICENTER":"56.4808","COUNTRY_CODE":"US","MEAN_ANOMALY":"303.6350","MEAN_MOTION_DDOT":"0.0000000000000","REF_FRAME":"TEME","RA_OF_ASC_NODE":"202.2441","MEAN_MOTION_DOT":"0.00001963","ECCENTRICITY":"0.00017700","SEMIMAJOR_AXIS":"6925.334","CLASSIFICATION_TYPE":"U","TLE_LINE2":"2 46755  53.0538 202.2441 0001770  56.4808 303.6350 15.06404897 95316","LAUNCH_DATE":"2020-10-24"}];
